start=new Date('2023-03-13T00:00:00.000Z').valueOf();
sats=[{"OBJECT_TYPE":"PAYLOAD","CENTER_NAME":"EARTH","BSTAR":"0.00216900000000","TLE_LINE1":"1 47876U 21021S   23071.79957001  .00032160  00000-0  21690-2 0  9991","REV_AT_EPOCH":"11147","MEAN_MOTION":"15.06384756","PERIOD":"95.593","TLE_LINE2":"2 47876  53.0527 137.7924 0001474  89.9415 270.1743 15.06384756111474","SEMIMAJOR_AXIS":"6925.395","DECAY_DATE":null,"ECCENTRICITY":"0.00014740","MEAN_ANOMALY":"270.1743","MEAN_ELEMENT_THEORY":"SGP4","MEAN_MOTION_DDOT":"0.0000000000000","EPOCH":"2023-03-12T19:11:22.848864","REF_FRAME":"TEME","RA_OF_ASC_NODE":"137.7924","EPHEMERIS_TYPE":"0","MEAN_MOTION_DOT":"0.00032160","ELEMENT_SET_NO":"999","PERIAPSIS":"546.239","CLASSIFICATION_TYPE":"U","SITE":"AFETR","RCS_SIZE":"LARGE","GP_ID":"227961581","INCLINATION":"53.0527","OBJECT_NAME":"STARLINK-2332","LAUNCH_DATE":"2021-03-14","APOAPSIS":"548.281","TIME_SYSTEM":"UTC","ARG_OF_PERICENTER":"89.9415","COUNTRY_CODE":"US","FILE":"3858743","OBJECT_ID":"2021-021S","NORAD_CAT_ID":"47876"},{"MEAN_ANOMALY":"256.0230","ECCENTRICITY":"0.00017240","DECAY_DATE":null,"SEMIMAJOR_AXIS":"6925.331","TLE_LINE2":"2 47877  53.0509 138.6190 0001724 104.0950 256.0230 15.06405660111439","MEAN_MOTION":"15.06405660","PERIOD":"95.592","REV_AT_EPOCH":"11143","TLE_LINE1":"1 47877U 21021T   23071.61524564  .00005863  00000-0  41211-3 0  9999","BSTAR":"0.00041211000000","CENTER_NAME":"EARTH","OBJECT_TYPE":"PAYLOAD","ELEMENT_SET_NO":"999","MEAN_MOTION_DOT":"0.00005863","EPHEMERIS_TYPE":"0","RA_OF_ASC_NODE":"138.6190","REF_FRAME":"TEME","EPOCH":"2023-03-12T14:45:57.223296","MEAN_ELEMENT_THEORY":"SGP4","MEAN_MOTION_DDOT":"0.0000000000000","ARG_OF_PERICENTER":"104.0950","TIME_SYSTEM":"UTC","APOAPSIS":"548.390","LAUNCH_DATE":"2021-03-14","INCLINATION":"53.0509","OBJECT_NAME":"STARLINK-2333","GP_ID":"227961833","RCS_SIZE":"LARGE","SITE":"AFETR","CLASSIFICATION_TYPE":"U","PERIAPSIS":"546.002","NORAD_CAT_ID":"47877","OBJECT_ID":"2021-021T","FILE":"3858743","COUNTRY_CODE":"US"},{"MEAN_MOTION_DOT":"0.00025414","EPHEMERIS_TYPE":"0","ELEMENT_SET_NO":"999","MEAN_ELEMENT_THEORY":"SGP4","MEAN_MOTION_DDOT":"0.0000000000000","RA_OF_ASC_NODE":"139.1646","REF_FRAME":"TEME","EPOCH":"2023-03-12T11:50:47.623200","TLE_LINE2":"2 47878  53.0517 139.1646 0001896  93.6301 266.4904 15.06412431111217","DECAY_DATE":null,"SEMIMAJOR_AXIS":"6925.310","MEAN_ANOMALY":"266.4904","ECCENTRICITY":"0.00018960","CENTER_NAME":"EARTH","OBJECT_TYPE":"PAYLOAD","TLE_LINE1":"1 47878U 21021U   23071.49360675  .00025414  00000-0  17183-2 0  9991","BSTAR":"0.00171830000000","REV_AT_EPOCH":"11121","MEAN_MOTION":"15.06412431","PERIOD":"95.591","NORAD_CAT_ID":"47878","FILE":"3858743","COUNTRY_CODE":"US","OBJECT_ID":"2021-021U","APOAPSIS":"548.488","TIME_SYSTEM":"UTC","ARG_OF_PERICENTER":"93.6301","PERIAPSIS":"545.862","RCS_SIZE":"LARGE","SITE":"AFETR","CLASSIFICATION_TYPE":"U","GP_ID":"227962583","LAUNCH_DATE":"2021-03-14","OBJECT_NAME":"STARLINK-2335","INCLINATION":"53.0517"},{"MEAN_MOTION_DOT":"0.00024629","EPHEMERIS_TYPE":"0","ELEMENT_SET_NO":"999","MEAN_ELEMENT_THEORY":"SGP4","MEAN_MOTION_DDOT":"0.0000000000000","RA_OF_ASC_NODE":"154.1819","REF_FRAME":"TEME","EPOCH":"2023-03-12T11:46:09.027264","TLE_LINE2":"2 47879  53.0518 154.1819 0001552 100.1860 259.9304 15.06408307111387","DECAY_DATE":null,"SEMIMAJOR_AXIS":"6925.323","MEAN_ANOMALY":"259.9304","ECCENTRICITY":"0.00015520","CENTER_NAME":"EARTH","OBJECT_TYPE":"PAYLOAD","TLE_LINE1":"1 47879U 21021V   23071.49038226  .00024629  00000-0  16662-2 0  9994","BSTAR":"0.00166620000000","REV_AT_EPOCH":"11138","MEAN_MOTION":"15.06408307","PERIOD":"95.592","NORAD_CAT_ID":"47879","FILE":"3858743","COUNTRY_CODE":"US","OBJECT_ID":"2021-021V","APOAPSIS":"548.263","TIME_SYSTEM":"UTC","ARG_OF_PERICENTER":"100.1860","PERIAPSIS":"546.113","RCS_SIZE":"LARGE","SITE":"AFETR","CLASSIFICATION_TYPE":"U","GP_ID":"227960832","LAUNCH_DATE":"2021-03-14","INCLINATION":"53.0518","OBJECT_NAME":"STARLINK-2336"},{"MEAN_ELEMENT_THEORY":"SGP4","MEAN_MOTION_DDOT":"0.0000000000000","REF_FRAME":"TEME","RA_OF_ASC_NODE":"147.8137","EPOCH":"2023-03-12T19:04:43.283424","ELEMENT_SET_NO":"999","EPHEMERIS_TYPE":"0","MEAN_MOTION_DOT":"0.00041166","TLE_LINE1":"1 47880U 21021W   23071.79494541  .00041166  00000-0  27704-2 0  9999","BSTAR":"0.00277040000000","CENTER_NAME":"EARTH","OBJECT_TYPE":"PAYLOAD","PERIOD":"95.596","MEAN_MOTION":"15.06346609","REV_AT_EPOCH":"11132","DECAY_DATE":null,"SEMIMAJOR_AXIS":"6925.512","TLE_LINE2":"2 47880  53.0509 147.8137 0001315  83.8509 276.2629 15.06346609111327","MEAN_ANOMALY":"276.2629","ECCENTRICITY":"0.00013150","FILE":"3858743","COUNTRY_CODE":"US","OBJECT_ID":"2021-021W","NORAD_CAT_ID":"47880","RCS_SIZE":"LARGE","SITE":"AFETR","CLASSIFICATION_TYPE":"U","PERIAPSIS":"546.466","LAUNCH_DATE":"2021-03-14","INCLINATION":"53.0509","OBJECT_NAME":"STARLINK-2337","GP_ID":"227961082","TIME_SYSTEM":"UTC","APOAPSIS":"548.288","ARG_OF_PERICENTER":"83.8509"},{"DECAY_DATE":null,"SEMIMAJOR_AXIS":"6925.231","TLE_LINE2":"2 47881  53.0544 147.6930 0001391  73.4559 286.6583 15.06438217111297","MEAN_ANOMALY":"286.6583","ECCENTRICITY":"0.00013910","TLE_LINE1":"1 47881U 21021X   23071.82073201  .00042962  00000-0  28826-2 0  9991","BSTAR":"0.00288260000000","CENTER_NAME":"EARTH","OBJECT_TYPE":"PAYLOAD","PERIOD":"95.590","MEAN_MOTION":"15.06438217","REV_AT_EPOCH":"11129","ELEMENT_SET_NO":"999","EPHEMERIS_TYPE":"0","MEAN_MOTION_DOT":"0.00042962","MEAN_MOTION_DDOT":"0.0000000000000","MEAN_ELEMENT_THEORY":"SGP4","REF_FRAME":"TEME","RA_OF_ASC_NODE":"147.6930","EPOCH":"2023-03-12T19:41:51.245664","TIME_SYSTEM":"UTC","APOAPSIS":"548.060","ARG_OF_PERICENTER":"73.4559","RCS_SIZE":"LARGE","SITE":"AFETR","CLASSIFICATION_TYPE":"U","PERIAPSIS":"546.133","LAUNCH_DATE":"2021-03-14","INCLINATION":"53.0544","OBJECT_NAME":"STARLINK-2339","GP_ID":"227962333","NORAD_CAT_ID":"47881","FILE":"3858743","COUNTRY_CODE":"US","OBJECT_ID":"2021-021X"},{"BSTAR":"0.00193930000000","TLE_LINE1":"1 47882U 21021Y   23071.79586666  .00028725  00000-0  19393-2 0  9992","OBJECT_TYPE":"PAYLOAD","CENTER_NAME":"EARTH","PERIOD":"95.592","MEAN_MOTION":"15.06402213","REV_AT_EPOCH":"11163","SEMIMAJOR_AXIS":"6925.342","DECAY_DATE":null,"TLE_LINE2":"2 47882  53.0519 137.8091 0001987  56.1833 303.9345 15.06402213111637","ECCENTRICITY":"0.00019870","MEAN_ANOMALY":"303.9345","MEAN_MOTION_DDOT":"0.0000000000000","MEAN_ELEMENT_THEORY":"SGP4","RA_OF_ASC_NODE":"137.8091","REF_FRAME":"TEME","EPOCH":"2023-03-12T19:06:02.879424","ELEMENT_SET_NO":"999","MEAN_MOTION_DOT":"0.00028725","EPHEMERIS_TYPE":"0","CLASSIFICATION_TYPE":"U","SITE":"AFETR","RCS_SIZE":"LARGE","PERIAPSIS":"545.831","INCLINATION":"53.0519","OBJECT_NAME":"STARLINK-2340","LAUNCH_DATE":"2021-03-14","GP_ID":"227962084","TIME_SYSTEM":"UTC","APOAPSIS":"548.583","ARG_OF_PERICENTER":"56.1833","COUNTRY_CODE":"US","FILE":"3858743","OBJECT_ID":"2021-021Y","NORAD_CAT_ID":"47882"},{"OBJECT_ID":"2021-021Z","FILE":"3858743","COUNTRY_CODE":"US","NORAD_CAT_ID":"47883","GP_ID":"227961332","LAUNCH_DATE":"2021-03-14","OBJECT_NAME":"STARLINK-2342","INCLINATION":"53.0510","PERIAPSIS":"546.229","RCS_SIZE":"LARGE","SITE":"AFETR","CLASSIFICATION_TYPE":"U","ARG_OF_PERICENTER":"90.2342","APOAPSIS":"547.989","TIME_SYSTEM":"UTC","REF_FRAME":"TEME","EPOCH":"2023-03-12T18:25:33.217248","RA_OF_ASC_NODE":"142.9354","MEAN_MOTION_DDOT":"0.0000000000000","MEAN_ELEMENT_THEORY":"SGP4","EPHEMERIS_TYPE":"0","MEAN_MOTION_DOT":"0.00045663","ELEMENT_SET_NO":"999","REV_AT_EPOCH":"11156","PERIOD":"95.590","MEAN_MOTION":"15.06434152","CENTER_NAME":"EARTH","OBJECT_TYPE":"PAYLOAD","TLE_LINE1":"1 47883U 21021Z   23071.76774557  .00045663  00000-0  30618-2 0  9991","BSTAR":"0.00306180000000","MEAN_ANOMALY":"269.8793","ECCENTRICITY":"0.00012710","TLE_LINE2":"2 47883  53.0510 142.9354 0001271  90.2342 269.8793 15.06434152111564","DECAY_DATE":null,"SEMIMAJOR_AXIS":"6925.244"},{"NORAD_CAT_ID":"47884","OBJECT_ID":"2021-021AA","FILE":"3858743","COUNTRY_CODE":"US","ARG_OF_PERICENTER":"100.2671","TIME_SYSTEM":"UTC","APOAPSIS":"548.100","LAUNCH_DATE":"2021-03-14","INCLINATION":"53.0529","OBJECT_NAME":"STARLINK-2343","GP_ID":"227961582","RCS_SIZE":"LARGE","SITE":"AFETR","CLASSIFICATION_TYPE":"U","PERIAPSIS":"546.190","ELEMENT_SET_NO":"999","MEAN_MOTION_DOT":"0.00006155","EPHEMERIS_TYPE":"0","EPOCH":"2023-03-12T14:49:54.482016","REF_FRAME":"TEME","RA_OF_ASC_NODE":"148.6051","MEAN_ELEMENT_THEORY":"SGP4","MEAN_MOTION_DDOT":"0.0000000000000","MEAN_ANOMALY":"259.8474","ECCENTRICITY":"0.00013790","DECAY_DATE":null,"SEMIMAJOR_AXIS":"6925.280","TLE_LINE2":"2 47884  53.0529 148.6051 0001379 100.2671 259.8474 15.06422349111298","PERIOD":"95.591","MEAN_MOTION":"15.06422349","REV_AT_EPOCH":"11129","TLE_LINE1":"1 47884U 21021AA  23071.61799169  .00006155  00000-0  43148-3 0  9998","BSTAR":"0.00043148000000","CENTER_NAME":"EARTH","OBJECT_TYPE":"PAYLOAD"},{"MEAN_MOTION":"15.06297827","PERIOD":"95.599","REV_AT_EPOCH":"11073","BSTAR":"0.00283990000000","TLE_LINE1":"1 47885U 21021AB  23071.54565709  .00042156  00000-0  28399-2 0  9993","OBJECT_TYPE":"PAYLOAD","CENTER_NAME":"EARTH","ECCENTRICITY":"0.00017570","MEAN_ANOMALY":"298.8880","SEMIMAJOR_AXIS":"6925.662","DECAY_DATE":null,"TLE_LINE2":"2 47885  53.0511 153.9331 0001757  61.2285 298.8880 15.06297827110730","REF_FRAME":"TEME","EPOCH":"2023-03-12T13:05:44.772576","RA_OF_ASC_NODE":"153.9331","MEAN_ELEMENT_THEORY":"SGP4","MEAN_MOTION_DDOT":"0.0000000000000","ELEMENT_SET_NO":"999","EPHEMERIS_TYPE":"0","MEAN_MOTION_DOT":"0.00042156","INCLINATION":"53.0511","OBJECT_NAME":"STARLINK-2344","LAUNCH_DATE":"2021-03-14","GP_ID":"227938237","SITE":"AFETR","CLASSIFICATION_TYPE":"U","RCS_SIZE":"LARGE","PERIAPSIS":"546.310","ARG_OF_PERICENTER":"61.2285","TIME_SYSTEM":"UTC","APOAPSIS":"548.744","OBJECT_ID":"2021-021AB","COUNTRY_CODE":"US","FILE":"3858667","NORAD_CAT_ID":"47885"}];
